[{"OBJECT_NAME":"GSAT0101 (GALILEO-PFM)","OBJECT_ID":"2011-060A","EPOCH":"2026-02-22T11:08:37.810464","MEAN_MOTION":1.70475478,"ECCENTRICITY":0.00039756,"INCLINATION":57.0318,"RA_OF_ASC_NODE":344.8758,"ARG_OF_PERICENTER":357.0591,"MEAN_ANOMALY":2.9533,"EPHEMERIS_TYPE":0,"CLASSIFICATION_TYPE":"U","NORAD_CAT_ID":37846,"ELEMENT_SET_NO":999,"REV_AT_EPOCH":8916,"BSTAR":0,"MEAN_MOTION_DOT":-8.2e-7,"MEAN_MOTION_DDOT":0},{"OBJECT_NAME":"GSAT0102 (GALILEO-FM2)","OBJECT_ID":"2011-060B","EPOCH":"2026-03-01T01:30:59.316192","MEAN_MOTION":1.70475778,"ECCENTRICITY":0.00054225,"INCLINATION":57.0301,"RA_OF_ASC_NODE":344.6971,"ARG_OF_PERICENTER":341.2092,"MEAN_ANOMALY":154.1953,"EPHEMERIS_TYPE":0,"CLASSIFICATION_TYPE":"U","NORAD_CAT_ID":37847,"ELEMENT_SET_NO":999,"REV_AT_EPOCH":8928,"BSTAR":0,"MEAN_MOTION_DOT":-1.06e-6,"MEAN_MOTION_DDOT":0},{"OBJECT_NAME":"GSAT0103 (GALILEO-FM3)","OBJECT_ID":"2012-055A","EPOCH":"2026-03-05T15:35:51.460224","MEAN_MOTION":1.70473457,"ECCENTRICITY":0.00054255,"INCLINATION":55.7393,"RA_OF_ASC_NODE":104.3859,"ARG_OF_PERICENTER":285.5287,"MEAN_ANOMALY":74.4915,"EPHEMERIS_TYPE":0,"CLASSIFICATION_TYPE":"U","NORAD_CAT_ID":38857,"ELEMENT_SET_NO":999,"REV_AT_EPOCH":8325,"BSTAR":0,"MEAN_MOTION_DOT":9.0e-8,"MEAN_MOTION_DDOT":0},{"OBJECT_NAME":"GSAT0201 (GALILEO 5)","OBJECT_ID":"2014-050A","EPOCH":"2026-03-03T05:40:55.999200","MEAN_MOTION":1.85520013,"ECCENTRICITY":0.1657553,"INCLINATION":48.9889,"RA_OF_ASC_NODE":277.7718,"ARG_OF_PERICENTER":175.2875,"MEAN_ANOMALY":186.5034,"EPHEMERIS_TYPE":0,"CLASSIFICATION_TYPE":"U","NORAD_CAT_ID":40128,"ELEMENT_SET_NO":999,"REV_AT_EPOCH":7635,"BSTAR":0,"MEAN_MOTION_DOT":-2.7e-7,"MEAN_MOTION_DDOT":0},{"OBJECT_NAME":"GSAT0202 (GALILEO 6)","OBJECT_ID":"2014-050B","EPOCH":"2026-03-06T04:30:08.141472","MEAN_MOTION":1.8552081,"ECCENTRICITY":0.16589272,"INCLINATION":49.0025,"RA_OF_ASC_NODE":276.7356,"ARG_OF_PERICENTER":176.1364,"MEAN_ANOMALY":185.3302,"EPHEMERIS_TYPE":0,"CLASSIFICATION_TYPE":"U","NORAD_CAT_ID":40129,"ELEMENT_SET_NO":999,"REV_AT_EPOCH":7857,"BSTAR":0,"MEAN_MOTION_DOT":-3.6e-7,"MEAN_MOTION_DDOT":0},{"OBJECT_NAME":"GSAT0203 (GALILEO 7)","OBJECT_ID":"2015-017A","EPOCH":"2026-02-27T12:31:05.039904","MEAN_MOTION":1.70475495,"ECCENTRICITY":0.00051612,"INCLINATION":56.8234,"RA_OF_ASC_NODE":344.5881,"ARG_OF_PERICENTER":295.0116,"MEAN_ANOMALY":64.9415,"EPHEMERIS_TYPE":0,"CLASSIFICATION_TYPE":"U","NORAD_CAT_ID":40544,"ELEMENT_SET_NO":999,"REV_AT_EPOCH":6733,"BSTAR":0,"MEAN_MOTION_DOT":-1.03e-6,"MEAN_MOTION_DDOT":0},{"OBJECT_NAME":"GSAT0204 (GALILEO 8)","OBJECT_ID":"2015-017B","EPOCH":"2026-02-27T04:34:27.961824","MEAN_MOTION":1.7047537,"ECCENTRICITY":0.00043897,"INCLINATION":56.8295,"RA_OF_ASC_NODE":344.6151,"ARG_OF_PERICENTER":286.3298,"MEAN_ANOMALY":73.6287,"EPHEMERIS_TYPE":0,"CLASSIFICATION_TYPE":"U","NORAD_CAT_ID":40545,"ELEMENT_SET_NO":999,"REV_AT_EPOCH":3037,"BSTAR":0,"MEAN_MOTION_DOT":-1.02e-6,"MEAN_MOTION_DDOT":0},{"OBJECT_NAME":"GSAT0205 (GALILEO 9)","OBJECT_ID":"2015-045A","EPOCH":"2026-02-12T22:54:15.154848","MEAN_MOTION":1.674108,"ECCENTRICITY":0.03595998,"INCLINATION":53.6403,"RA_OF_ASC_NODE":225.6057,"ARG_OF_PERICENTER":59.9658,"MEAN_ANOMALY":303.5577,"EPHEMERIS_TYPE":0,"CLASSIFICATION_TYPE":"U","NORAD_CAT_ID":40889,"ELEMENT_SET_NO":999,"REV_AT_EPOCH":6421,"BSTAR":0,"MEAN_MOTION_DOT":7.8e-7,"MEAN_MOTION_DDOT":0},{"OBJECT_NAME":"GSAT0206 (GALILEO 10)","OBJECT_ID":"2015-045B","EPOCH":"2026-03-06T05:14:34.715040","MEAN_MOTION":1.70473773,"ECCENTRICITY":0.00037246,"INCLINATION":54.9806,"RA_OF_ASC_NODE":224.4444,"ARG_OF_PERICENTER":50.3393,"MEAN_ANOMALY":309.6334,"EPHEMERIS_TYPE":0,"CLASSIFICATION_TYPE":"U","NORAD_CAT_ID":40890,"ELEMENT_SET_NO":999,"REV_AT_EPOCH":6528,"BSTAR":0,"MEAN_MOTION_DOT":2.0e-7,"MEAN_MOTION_DDOT":0},{"OBJECT_NAME":"GSAT0209 (GALILEO 12)","OBJECT_ID":"2015-079A","EPOCH":"2026-03-05T19:12:03.208896","MEAN_MOTION":1.70474567,"ECCENTRICITY":0.00047381,"INCLINATION":55.7602,"RA_OF_ASC_NODE":104.0969,"ARG_OF_PERICENTER":323.5937,"MEAN_ANOMALY":36.4535,"EPHEMERIS_TYPE":0,"CLASSIFICATION_TYPE":"U","NORAD_CAT_ID":41174,"ELEMENT_SET_NO":999,"REV_AT_EPOCH":6301,"BSTAR":0,"MEAN_MOTION_DOT":8.0e-8,"MEAN_MOTION_DDOT":0},{"OBJECT_NAME":"GSAT0208 (GALILEO 11)","OBJECT_ID":"2015-079B","EPOCH":"2026-03-03T02:05:47.447808","MEAN_MOTION":1.70474318,"ECCENTRICITY":0.00041639,"INCLINATION":55.7569,"RA_OF_ASC_NODE":104.1685,"ARG_OF_PERICENTER":323.7694,"MEAN_ANOMALY":36.289,"EPHEMERIS_TYPE":0,"CLASSIFICATION_TYPE":"U","NORAD_CAT_ID":41175,"ELEMENT_SET_NO":999,"REV_AT_EPOCH":6338,"BSTAR":0,"MEAN_MOTION_DOT":1.5e-7,"MEAN_MOTION_DDOT":0},{"OBJECT_NAME":"GSAT0211 (GALILEO 14)","OBJECT_ID":"2016-030A","EPOCH":"2026-03-05T13:22:59.638944","MEAN_MOTION":1.70473873,"ECCENTRICITY":0.00035813,"INCLINATION":55.131,"RA_OF_ASC_NODE":224.5419,"ARG_OF_PERICENTER":25.3389,"MEAN_ANOMALY":334.6168,"EPHEMERIS_TYPE":0,"CLASSIFICATION_TYPE":"U","NORAD_CAT_ID":41549,"ELEMENT_SET_NO":999,"REV_AT_EPOCH":6090,"BSTAR":0,"MEAN_MOTION_DOT":1.6e-7,"MEAN_MOTION_DDOT":0},{"OBJECT_NAME":"GSAT0210 (GALILEO 13)","OBJECT_ID":"2016-030B","EPOCH":"2026-03-05T19:33:28.414080","MEAN_MOTION":1.70473987,"ECCENTRICITY":0.00012003,"INCLINATION":55.1283,"RA_OF_ASC_NODE":224.5329,"ARG_OF_PERICENTER":195.2538,"MEAN_ANOMALY":164.6814,"EPHEMERIS_TYPE":0,"CLASSIFICATION_TYPE":"U","NORAD_CAT_ID":41550,"ELEMENT_SET_NO":999,"REV_AT_EPOCH":6090,"BSTAR":0,"MEAN_MOTION_DOT":1.8e-7,"MEAN_MOTION_DDOT":0},{"OBJECT_NAME":"GSAT0207 (GALILEO 15)","OBJECT_ID":"2016-069A","EPOCH":"2026-02-28T05:27:34.324704","MEAN_MOTION":1.70474383,"ECCENTRICITY":0.00050316,"INCLINATION":55.4267,"RA_OF_ASC_NODE":104.1007,"ARG_OF_PERICENTER":309.1503,"MEAN_ANOMALY":50.8842,"EPHEMERIS_TYPE":0,"CLASSIFICATION_TYPE":"U","NORAD_CAT_ID":41859,"ELEMENT_SET_NO":999,"REV_AT_EPOCH":5754,"BSTAR":0,"MEAN_MOTION_DOT":8.0e-8,"MEAN_MOTION_DDOT":0},{"OBJECT_NAME":"GSAT0212 (GALILEO 16)","OBJECT_ID":"2016-069B","EPOCH":"2026-03-05T22:43:28.424064","MEAN_MOTION":1.70474702,"ECCENTRICITY":0.00036433,"INCLINATION":55.4278,"RA_OF_ASC_NODE":103.9372,"ARG_OF_PERICENTER":335.6888,"MEAN_ANOMALY":24.3725,"EPHEMERIS_TYPE":0,"CLASSIFICATION_TYPE":"U","NORAD_CAT_ID":41860,"ELEMENT_SET_NO":999,"REV_AT_EPOCH":5789,"BSTAR":0,"MEAN_MOTION_DOT":7.0e-8,"MEAN_MOTION_DDOT":0},{"OBJECT_NAME":"GSAT0213 (GALILEO 17)","OBJECT_ID":"2016-069C","EPOCH":"2026-03-05T17:27:54.626112","MEAN_MOTION":1.70474927,"ECCENTRICITY":0.00052959,"INCLINATION":55.4302,"RA_OF_ASC_NODE":103.9512,"ARG_OF_PERICENTER":293.0089,"MEAN_ANOMALY":67.0145,"EPHEMERIS_TYPE":0,"CLASSIFICATION_TYPE":"U","NORAD_CAT_ID":41861,"ELEMENT_SET_NO":999,"REV_AT_EPOCH":5775,"BSTAR":0,"MEAN_MOTION_DOT":8.0e-8,"MEAN_MOTION_DDOT":0},{"OBJECT_NAME":"GSAT0214 (GALILEO 18)","OBJECT_ID":"2016-069D","EPOCH":"2026-03-06T11:02:54.170016","MEAN_MOTION":1.70474815,"ECCENTRICITY":0.0004341,"INCLINATION":55.4293,"RA_OF_ASC_NODE":103.9236,"ARG_OF_PERICENTER":297.3479,"MEAN_ANOMALY":62.684,"EPHEMERIS_TYPE":0,"CLASSIFICATION_TYPE":"U","NORAD_CAT_ID":41862,"ELEMENT_SET_NO":999,"REV_AT_EPOCH":5789,"BSTAR":0,"MEAN_MOTION_DOT":6.0e-8,"MEAN_MOTION_DDOT":0}]
